{
  "norad_id": 66271,
  "name": "STARLINK-35745",
  "history": [
    {
      "epoch": "2026-03-28T18:36:09.967104Z",
      "apogee_km": 476.58198245376934,
      "perigee_km": 473.81364638883224,
      "latitude_deg": -4.8772998033985276e-05,
      "longitude_deg": -2.2943903784795596,
      "height_km": 476.3978766400646,
      "semi_major_axis_km": 6853.3348144213005,
      "eccentricity": 0.00020197,
      "inclination_deg": 53.1584,
      "raan_deg": 102.9379,
      "arg_perigee_deg": 102.651,
      "mean_anomaly_deg": 257.4716,
      "mean_motion_rev_day": 15.30205779
    },
    {
      "epoch": "2026-03-29T00:52:22.788768Z",
      "apogee_km": 476.5444417333456,
      "perigee_km": 473.8277844513159,
      "latitude_deg": -9.402042677581771e-07,
      "longitude_deg": -97.8148875317555,
      "height_km": 476.20082640096643,
      "semi_major_axis_km": 6853.3231130923305,
      "eccentricity": 0.0001982,
      "inclination_deg": 53.1592,
      "raan_deg": 101.7283,
      "arg_perigee_deg": 94.9719,
      "mean_anomaly_deg": 265.1508,
      "mean_motion_rev_day": 15.30209698
    },
    {
      "epoch": "2026-03-30T00:23:11.232672Z",
      "apogee_km": 476.14864960968316,
      "perigee_km": 474.2091612084523,
      "latitude_deg": -4.889243902693804e-05,
      "longitude_deg": -96.03333570100952,
      "height_km": 476.0230850332749,
      "semi_major_axis_km": 6853.315905409067,
      "eccentricity": 0.0001415,
      "inclination_deg": 53.1598,
      "raan_deg": 97.1774,
      "arg_perigee_deg": 86.8262,
      "mean_anomaly_deg": 273.29,
      "mean_motion_rev_day": 15.30212112
    },
    {
      "epoch": "2026-03-30T06:39:24.118272Z",
      "apogee_km": 476.1261024798696,
      "perigee_km": 474.36341269181867,
      "latitude_deg": 7.872043027177049e-05,
      "longitude_deg": 168.441759824899,
      "height_km": 476.1190793975934,
      "semi_major_axis_km": 6853.381757585844,
      "eccentricity": 0.0001286,
      "inclination_deg": 53.1601,
      "raan_deg": 95.9636,
      "arg_perigee_deg": 88.4573,
      "mean_anomaly_deg": 271.6576,
      "mean_motion_rev_day": 15.30190057
    }
  ]
}